[
    {
        "Altitude(m)": 559159.3351610857,
        "Argument of Periapsis(deg)": 0.013245982221427002,
        "Eccentricity": 0.0,
        "Inclination(deg)": 53.0,
        "Latitude(deg)": 49.915079242807835,
        "Longitude(deg)": -58.646146610840354,
        "Mean Anomaly(deg)": -287.0895142648448,
        "RAAN(deg)": 339.9802867370561,
        "Satellite Name": "Starlink Shell 1 1499",
        "Satellite Number": 1499,
        "Semi-Major Axis(m)": 6931778.249405717,
        "Time(s)": 380
    },
    {
        "Altitude(m)": 559210.8279556141,
        "Argument of Periapsis(deg)": 0.013594560700938237,
        "Eccentricity": 0.0,
        "Inclination(deg)": 53.0,
        "Latitude(deg)": 50.13952220593378,
        "Longitude(deg)": -57.77865766322103,
        "Mean Anomaly(deg)": -286.46268306128815,
        "RAAN(deg)": 339.97976796697856,
        "Satellite Name": "Starlink Shell 1 1499",
        "Satellite Number": 1499,
        "Semi-Major Axis(m)": 6931778.249405717,
        "Time(s)": 390
    },
    {
        "Altitude(m)": 559260.6669426424,
        "Argument of Periapsis(deg)": 0.013943139180449475,
        "Eccentricity": 0.0,
        "Inclination(deg)": 53.0,
        "Latitude(deg)": 50.3567823979632,
        "Longitude(deg)": -56.90276988814632,
        "Mean Anomaly(deg)": -285.8358518577314,
        "RAAN(deg)": 339.9792491969011,
        "Satellite Name": "Starlink Shell 1 1499",
        "Satellite Number": 1499,
        "Semi-Major Axis(m)": 6931778.249405717,
        "Time(s)": 400
    },
    {
        "Altitude(m)": 559308.8218801739,
        "Argument of Periapsis(deg)": 0.014291717659960712,
        "Eccentricity": 0.0,
        "Inclination(deg)": 53.0,
        "Latitude(deg)": 50.566739331668664,
        "Longitude(deg)": -56.018620564392236,
        "Mean Anomaly(deg)": -285.2090206541747,
        "RAAN(deg)": 339.9787304268237,
        "Satellite Name": "Starlink Shell 1 1499",
        "Satellite Number": 1499,
        "Semi-Major Axis(m)": 6931778.249405717,
        "Time(s)": 410
    },
    {
        "Altitude(m)": 559355.2635789667,
        "Argument of Periapsis(deg)": 0.014640296139471948,
        "Eccentricity": 0.0,
        "Inclination(deg)": 53.0,
        "Latitude(deg)": 50.76927406118045,
        "Longitude(deg)": -55.12636322978568,
        "Mean Anomaly(deg)": -284.58218945061793,
        "RAAN(deg)": 339.97821165674617,
        "Satellite Name": "Starlink Shell 1 1499",
        "Satellite Number": 1499,
        "Semi-Major Axis(m)": 6931778.249405717,
        "Time(s)": 420
    },
    {
        "Altitude(m)": 559399.9639168808,
        "Argument of Periapsis(deg)": 0.014988874618983185,
        "Eccentricity": 0.0,
        "Inclination(deg)": 53.0,
        "Latitude(deg)": 50.964269445691485,
        "Longitude(deg)": -54.22616743789199,
        "Mean Anomaly(deg)": -283.95535824706127,
        "RAAN(deg)": 339.9776928866687,
        "Satellite Name": "Starlink Shell 1 1499",
        "Satellite Number": 1499,
        "Semi-Major Axis(m)": 6931778.249405717,
        "Time(s)": 430
    },
    {
        "Altitude(m)": 559442.8958526495,
        "Argument of Periapsis(deg)": 0.015337453098494424,
        "Eccentricity": 0.0,
        "Inclination(deg)": 53.0,
        "Latitude(deg)": 51.151610420053544,
        "Longitude(deg)": -53.31821845786202,
        "Mean Anomaly(deg)": -283.32852704350455,
        "RAAN(deg)": 339.97717411659124,
        "Satellite Name": "Starlink Shell 1 1499",
        "Satellite Number": 1499,
        "Semi-Major Axis(m)": 6931778.249405717,
        "Time(s)": 440
    },
    {
        "Altitude(m)": 559484.0334391318,
        "Argument of Periapsis(deg)": 0.01568603157800566,
        "Eccentricity": 0.0,
        "Inclination(deg)": 53.0,
        "Latitude(deg)": 51.33118427121004,
        "Longitude(deg)": -52.40271842530392,
        "Mean Anomaly(deg)": -282.70169583994783,
        "RAAN(deg)": 339.9766553465138,
        "Satellite Name": "Starlink Shell 1 1499",
        "Satellite Number": 1499,
        "Semi-Major Axis(m)": 6931778.249405717,
        "Time(s)": 450
    },
    {
        "Altitude(m)": 559523.3518360169,
        "Argument of Periapsis(deg)": 0.0160346100575169,
        "Eccentricity": 0.0,
        "Inclination(deg)": 53.0,
        "Latitude(deg)": 51.502880919299805,
        "Longitude(deg)": -51.479885913649035,
        "Mean Anomaly(deg)": -282.0748646363911,
        "RAAN(deg)": 339.97613657643626,
        "Satellite Name": "Starlink Shell 1 1499",
        "Satellite Number": 1499,
        "Semi-Major Axis(m)": 6931778.249405717,
        "Time(s)": 460
    },
    {
        "Altitude(m)": 559560.8273219902,
        "Argument of Periapsis(deg)": 0.016383188537028134,
        "Eccentricity": 0.0,
        "Inclination(deg)": 53.0,
        "Latitude(deg)": 51.666593202144924,
        "Longitude(deg)": -50.5499554344015,
        "Mean Anomaly(deg)": -281.4480334328344,
        "RAAN(deg)": 339.9756178063588,
        "Satellite Name": "Starlink Shell 1 1499",
        "Satellite Number": 1499,
        "Semi-Major Axis(m)": 6931778.249405717,
        "Time(s)": 470
    },
    {
        "Altitude(m)": 559596.4373063324,
        "Argument of Periapsis(deg)": 0.01673176701653937,
        "Eccentricity": 0.0,
        "Inclination(deg)": 53.0,
        "Latitude(deg)": 51.8222171617313,
        "Longitude(deg)": -49.613178375023544,
        "Mean Anomaly(deg)": -280.82120222927773,
        "RAAN(deg)": 339.97509903628134,
        "Satellite Name": "Starlink Shell 1 1499",
        "Satellite Number": 1499,
        "Semi-Major Axis(m)": 6931778.249405717,
        "Time(s)": 480
    },
    {
        "Altitude(m)": 559630.16033996,
        "Argument of Periapsis(deg)": 0.017080345496050607,
        "Eccentricity": 0.0,
        "Inclination(deg)": 53.0,
        "Latitude(deg)": 51.969652331189856,
        "Longitude(deg)": -48.669822345081705,
        "Mean Anomaly(deg)": -280.194371025721,
        "RAAN(deg)": 339.9745802662038,
        "Satellite Name": "Starlink Shell 1 1499",
        "Satellite Number": 1499,
        "Semi-Major Axis(m)": 6931778.249405717,
        "Time(s)": 490
    },
    {
        "Altitude(m)": 559661.9761259123,
        "Argument of Periapsis(deg)": 0.017428923975561842,
        "Eccentricity": 0.0,
        "Inclination(deg)": 53.0,
        "Latitude(deg)": 52.108802020695,
        "Longitude(deg)": -47.720170440417164,
        "Mean Anomaly(deg)": -279.56753982216424,
        "RAAN(deg)": 339.9740614961264,
        "Satellite Name": "Starlink Shell 1 1499",
        "Satellite Number": 1499,
        "Semi-Major Axis(m)": 6931778.249405717,
        "Time(s)": 500
    },
    {
        "Altitude(m)": 559691.8655292629,
        "Argument of Periapsis(deg)": 0.01777750245507308,
        "Eccentricity": 0.0,
        "Inclination(deg)": 53.0,
        "Latitude(deg)": 52.23957360061517,
        "Longitude(deg)": -46.76452193573583,
        "Mean Anomaly(deg)": -278.9407086186075,
        "RAAN(deg)": 339.9735427260489,
        "Satellite Name": "Starlink Shell 1 1499",
        "Satellite Number": 1499,
        "Semi-Major Axis(m)": 6931778.249405717,
        "Time(s)": 510
    },
    {
        "Altitude(m)": 559719.8105864635,
        "Argument of Periapsis(deg)": 0.018126080934584315,
        "Eccentricity": 0.0,
        "Inclination(deg)": 53.0,
        "Latitude(deg)": 52.36187878018078,
        "Longitude(deg)": -45.803191378187734,
        "Mean Anomaly(deg)": -278.3138774150508,
        "RAAN(deg)": 339.9730239559714,
        "Satellite Name": "Starlink Shell 1 1499",
        "Satellite Number": 1499,
        "Semi-Major Axis(m)": 6931778.249405717,
        "Time(s)": 520
    },
    {
        "Altitude(m)": 559745.7945141231,
        "Argument of Periapsis(deg)": 0.018474659414095554,
        "Eccentricity": 0.0,
        "Inclination(deg)": 53.0,
        "Latitude(deg)": 52.475633879954515,
        "Longitude(deg)": -44.83650759325509,
        "Mean Anomaly(deg)": -277.68704621149413,
        "RAAN(deg)": 339.972505185894,
        "Satellite Name": "Starlink Shell 1 1499",
        "Satellite Number": 1499,
        "Semi-Major Axis(m)": 6931778.249405717,
        "Time(s)": 530
    },
    {
        "Altitude(m)": 559769.8017171567,
        "Argument of Periapsis(deg)": 0.018823237893606792,
        "Eccentricity": 0.0,
        "Inclination(deg)": 53.0,
        "Latitude(deg)": 52.58076009612679,
        "Longitude(deg)": -43.86481411702729,
        "Mean Anomaly(deg)": -277.06021500793736,
        "RAAN(deg)": 339.9719864158165,
        "Satellite Name": "Starlink Shell 1 1499",
        "Satellite Number": 1499,
        "Semi-Major Axis(m)": 6931778.249405717,
        "Time(s)": 540
    },
    {
        "Altitude(m)": 559791.8177964485,
        "Argument of Periapsis(deg)": 0.019171816373118027,
        "Eccentricity": 0.0,
        "Inclination(deg)": 53.0,
        "Latitude(deg)": 52.677183755051026,
        "Longitude(deg)": -42.888468027892515,
        "Mean Anomaly(deg)": -276.4333838043807,
        "RAAN(deg)": 339.97146764573904,
        "Satellite Name": "Starlink Shell 1 1499",
        "Satellite Number": 1499,
        "Semi-Major Axis(m)": 6931778.249405717,
        "Time(s)": 550
    },
    {
        "Altitude(m)": 559811.8295558121,
        "Argument of Periapsis(deg)": 0.019520394852629266,
        "Eccentricity": 0.0,
        "Inclination(deg)": 53.0,
        "Latitude(deg)": 52.76483655602073,
        "Longitude(deg)": -41.907838693612405,
        "Mean Anomaly(deg)": -275.8065526008239,
        "RAAN(deg)": 339.9709488756616,
        "Satellite Name": "Starlink Shell 1 1499",
        "Satellite Number": 1499,
        "Semi-Major Axis(m)": 6931778.249405717,
        "Time(s)": 560
    }
]